STARLINK-3545           
1 51855U 22022D   25323.94199719  .00000486  00000+0  48627-4 0  9994
2 51855  53.2148 151.7191 0001345 102.0625 258.0518 15.08838738206405
STARLINK-3568           
1 51856U 22022E   25323.82152935 -.00000189  00000+0  61962-5 0  9990
2 51856  53.2131 152.3459 0001419  82.4522 277.6632 15.08838068206467
STARLINK-3571           
1 51857U 22022F   25323.94296870  .00000242  00000+0  33305-4 0  9999
2 51857  53.2152 151.8024 0001843  87.1911 272.9292 15.08839297206452
STARLINK-3563           
1 51858U 22022G   25323.94569065 -.00005207  00000+0 -30922-3 0  9998
2 51858  53.2154 151.7801 0001853  97.4802 262.6400 15.08848198206458
STARLINK-3560           
1 51859U 22022H   25324.22725041 -.00000643  00000+0 -22298-4 0  9996
2 51859  53.2189 140.5278 0001353  92.1980 267.9167 15.08843925206636
STARLINK-3559           
1 51860U 22022J   25323.76998197  .00002437  00000+0  17121-3 0  9999
2 51860  53.2151 142.5713 0000950  61.6056 298.5032 15.08822797206523
STARLINK-3562           
1 51861U 22022K   25323.22534595 -.00001187  00000+0 -56519-4 0  9997
2 51861  53.2124 145.0135 0001378  94.3129 265.8021 15.08834507206357
STARLINK-3508           
1 51862U 22022L   25324.22996937  .00000824  00000+0  69895-4 0  9997
2 51862  53.2175 140.5048 0001697  73.3957 286.7221 15.08837438206649
STARLINK-3555           
1 51863U 22022M   25324.21157178  .00000522  00000+0  50870-4 0  9991
2 51863  53.2134 140.5853 0001620  83.6238 276.4938 15.08835388206587
STARLINK-3548           
1 51864U 22022N   25324.21524184  .00000365  00000+0  40998-4 0  9992
2 51864  53.2160 140.4899 0001586  86.8193 273.2981 15.08847331206632
STARLINK-3503           
1 51865U 22022P   25324.20421556  .00001557  00000+0  11592-3 0  9992
2 51865  53.2149 140.6199 0001279  91.8238 268.2900 15.08821570206586
STARLINK-3553           
1 51866U 22022Q   25323.80399691  .00004136  00000+0  27759-3 0  9990
2 51866  53.2165 142.2724 0001491  92.4430 267.6732 15.08866929206521
STARLINK-3590           
1 51867U 22022R   25323.80308856  .00000301  00000+0  37027-4 0  9994
2 51867  53.2145 142.4195 0001640  85.4000 274.7180 15.08836604206528
STARLINK-3578           
1 51868U 22022S   25324.20789190 -.00000695  00000+0 -25545-4 0  9994
2 51868  53.2144 140.6023 0001962  84.1485 275.9731 15.08843472206580
STARLINK-3588           
1 51869U 22022T   25323.79205236 -.00003534  00000+0 -20411-3 0  9993
2 51869  53.2148 142.4690 0000950  98.2365 261.8734 15.08836044206522
STARLINK-3591           
1 51870U 22022U   25323.79941337 -.00000251  00000+0  23462-5 0  9997
2 51870  53.2154 142.4361 0001447  88.0414 272.0744 15.08827058206575
