[{"OBJECT_NAME":"STARLINK-3545","OBJECT_ID":"2022-022D","EPOCH":"2025-11-19T22:36:28.557216","MEAN_MOTION":15.08838738,"ECCENTRICITY":0.00013454,"INCLINATION":53.2148,"RA_OF_ASC_NODE":151.7191,"ARG_OF_PERICENTER":102.0625,"MEAN_ANOMALY":258.0518,"EPHEMERIS_TYPE":0,"CLASSIFICATION_TYPE":"U","NORAD_CAT_ID":51855,"ELEMENT_SET_NO":999,"REV_AT_EPOCH":20640,"BSTAR":4.86275e-5,"MEAN_MOTION_DOT":4.86e-6,"MEAN_MOTION_DDOT":0},{"OBJECT_NAME":"STARLINK-3568","OBJECT_ID":"2022-022E","EPOCH":"2025-11-19T19:43:00.135840","MEAN_MOTION":15.08838068,"ECCENTRICITY":0.00014193,"INCLINATION":53.2131,"RA_OF_ASC_NODE":152.3459,"ARG_OF_PERICENTER":82.4522,"MEAN_ANOMALY":277.6632,"EPHEMERIS_TYPE":0,"CLASSIFICATION_TYPE":"U","NORAD_CAT_ID":51856,"ELEMENT_SET_NO":999,"REV_AT_EPOCH":20646,"BSTAR":6.196155e-6,"MEAN_MOTION_DOT":-1.89e-6,"MEAN_MOTION_DDOT":0},{"OBJECT_NAME":"STARLINK-3571","OBJECT_ID":"2022-022F","EPOCH":"2025-11-19T22:37:52.495680","MEAN_MOTION":15.08839297,"ECCENTRICITY":0.00018439,"INCLINATION":53.2152,"RA_OF_ASC_NODE":151.8024,"ARG_OF_PERICENTER":87.1911,"MEAN_ANOMALY":272.9292,"EPHEMERIS_TYPE":0,"CLASSIFICATION_TYPE":"U","NORAD_CAT_ID":51857,"ELEMENT_SET_NO":999,"REV_AT_EPOCH":20645,"BSTAR":3.3305322e-5,"MEAN_MOTION_DOT":2.42e-6,"MEAN_MOTION_DDOT":0},{"OBJECT_NAME":"STARLINK-3563","OBJECT_ID":"2022-022G","EPOCH":"2025-11-19T22:41:47.672160","MEAN_MOTION":15.08848198,"ECCENTRICITY":0.00018532,"INCLINATION":53.2154,"RA_OF_ASC_NODE":151.7801,"ARG_OF_PERICENTER":97.4802,"MEAN_ANOMALY":262.64,"EPHEMERIS_TYPE":0,"CLASSIFICATION_TYPE":"U","NORAD_CAT_ID":51858,"ELEMENT_SET_NO":999,"REV_AT_EPOCH":20645,"BSTAR":-0.00030921714,"MEAN_MOTION_DOT":-5.207e-5,"MEAN_MOTION_DDOT":0},{"OBJECT_NAME":"STARLINK-3560","OBJECT_ID":"2022-022H","EPOCH":"2025-11-20T05:27:14.435424","MEAN_MOTION":15.08843925,"ECCENTRICITY":0.00013536,"INCLINATION":53.2189,"RA_OF_ASC_NODE":140.5278,"ARG_OF_PERICENTER":92.198,"MEAN_ANOMALY":267.9167,"EPHEMERIS_TYPE":0,"CLASSIFICATION_TYPE":"U","NORAD_CAT_ID":51859,"ELEMENT_SET_NO":999,"REV_AT_EPOCH":20663,"BSTAR":-2.2298444e-5,"MEAN_MOTION_DOT":-6.43e-6,"MEAN_MOTION_DDOT":0},{"OBJECT_NAME":"STARLINK-3559","OBJECT_ID":"2022-022J","EPOCH":"2025-11-19T18:28:46.442208","MEAN_MOTION":15.08822797,"ECCENTRICITY":9.505e-5,"INCLINATION":53.2151,"RA_OF_ASC_NODE":142.5713,"ARG_OF_PERICENTER":61.6056,"MEAN_ANOMALY":298.5032,"EPHEMERIS_TYPE":0,"CLASSIFICATION_TYPE":"U","NORAD_CAT_ID":51860,"ELEMENT_SET_NO":999,"REV_AT_EPOCH":20652,"BSTAR":0.00017120799,"MEAN_MOTION_DOT":2.437e-5,"MEAN_MOTION_DDOT":0},{"OBJECT_NAME":"STARLINK-3562","OBJECT_ID":"2022-022K","EPOCH":"2025-11-19T05:24:29.890080","MEAN_MOTION":15.08834507,"ECCENTRICITY":0.00013785,"INCLINATION":53.2124,"RA_OF_ASC_NODE":145.0135,"ARG_OF_PERICENTER":94.3129,"MEAN_ANOMALY":265.8021,"EPHEMERIS_TYPE":0,"CLASSIFICATION_TYPE":"U","NORAD_CAT_ID":51861,"ELEMENT_SET_NO":999,"REV_AT_EPOCH":20635,"BSTAR":-5.6518503e-5,"MEAN_MOTION_DOT":-1.187e-5,"MEAN_MOTION_DDOT":0},{"OBJECT_NAME":"STARLINK-3508","OBJECT_ID":"2022-022L","EPOCH":"2025-11-20T05:31:09.353568","MEAN_MOTION":15.08837438,"ECCENTRICITY":0.00016974,"INCLINATION":53.2175,"RA_OF_ASC_NODE":140.5048,"ARG_OF_PERICENTER":73.3957,"MEAN_ANOMALY":286.7221,"EPHEMERIS_TYPE":0,"CLASSIFICATION_TYPE":"U","NORAD_CAT_ID":51862,"ELEMENT_SET_NO":999,"REV_AT_EPOCH":20664,"BSTAR":6.9895459e-5,"MEAN_MOTION_DOT":8.24e-6,"MEAN_MOTION_DDOT":0},{"OBJECT_NAME":"STARLINK-3555","OBJECT_ID":"2022-022M","EPOCH":"2025-11-20T05:04:39.801792","MEAN_MOTION":15.08835388,"ECCENTRICITY":0.00016206,"INCLINATION":53.2134,"RA_OF_ASC_NODE":140.5853,"ARG_OF_PERICENTER":83.6238,"MEAN_ANOMALY":276.4938,"EPHEMERIS_TYPE":0,"CLASSIFICATION_TYPE":"U","NORAD_CAT_ID":51863,"ELEMENT_SET_NO":999,"REV_AT_EPOCH":20658,"BSTAR":5.0870228e-5,"MEAN_MOTION_DOT":5.22e-6,"MEAN_MOTION_DDOT":0},{"OBJECT_NAME":"STARLINK-3548","OBJECT_ID":"2022-022N","EPOCH":"2025-11-20T05:09:56.894976","MEAN_MOTION":15.08847331,"ECCENTRICITY":0.00015864,"INCLINATION":53.216,"RA_OF_ASC_NODE":140.4899,"ARG_OF_PERICENTER":86.8193,"MEAN_ANOMALY":273.2981,"EPHEMERIS_TYPE":0,"CLASSIFICATION_TYPE":"U","NORAD_CAT_ID":51864,"ELEMENT_SET_NO":999,"REV_AT_EPOCH":20663,"BSTAR":4.099778e-5,"MEAN_MOTION_DOT":3.65e-6,"MEAN_MOTION_DDOT":0},{"OBJECT_NAME":"STARLINK-3503","OBJECT_ID":"2022-022P","EPOCH":"2025-11-20T04:54:04.224384","MEAN_MOTION":15.0882157,"ECCENTRICITY":0.00012793,"INCLINATION":53.2149,"RA_OF_ASC_NODE":140.6199,"ARG_OF_PERICENTER":91.8238,"MEAN_ANOMALY":268.29,"EPHEMERIS_TYPE":0,"CLASSIFICATION_TYPE":"U","NORAD_CAT_ID":51865,"ELEMENT_SET_NO":999,"REV_AT_EPOCH":20658,"BSTAR":0.00011591746,"MEAN_MOTION_DOT":1.557e-5,"MEAN_MOTION_DDOT":0},{"OBJECT_NAME":"STARLINK-3553","OBJECT_ID":"2022-022Q","EPOCH":"2025-11-19T19:17:45.333024","MEAN_MOTION":15.08866929,"ECCENTRICITY":0.00014914,"INCLINATION":53.2165,"RA_OF_ASC_NODE":142.2724,"ARG_OF_PERICENTER":92.443,"MEAN_ANOMALY":267.6732,"EPHEMERIS_TYPE":0,"CLASSIFICATION_TYPE":"U","NORAD_CAT_ID":51866,"ELEMENT_SET_NO":999,"REV_AT_EPOCH":20652,"BSTAR":0.00027758903,"MEAN_MOTION_DOT":4.136e-5,"MEAN_MOTION_DDOT":0},{"OBJECT_NAME":"STARLINK-3590","OBJECT_ID":"2022-022R","EPOCH":"2025-11-19T19:16:26.851584","MEAN_MOTION":15.08836604,"ECCENTRICITY":0.00016401,"INCLINATION":53.2145,"RA_OF_ASC_NODE":142.4195,"ARG_OF_PERICENTER":85.4,"MEAN_ANOMALY":274.718,"EPHEMERIS_TYPE":0,"CLASSIFICATION_TYPE":"U","NORAD_CAT_ID":51867,"ELEMENT_SET_NO":999,"REV_AT_EPOCH":20652,"BSTAR":3.7027479e-5,"MEAN_MOTION_DOT":3.01e-6,"MEAN_MOTION_DDOT":0},{"OBJECT_NAME":"STARLINK-3578","OBJECT_ID":"2022-022S","EPOCH":"2025-11-20T04:59:21.860160","MEAN_MOTION":15.08843472,"ECCENTRICITY":0.00019623,"INCLINATION":53.2144,"RA_OF_ASC_NODE":140.6023,"ARG_OF_PERICENTER":84.1485,"MEAN_ANOMALY":275.9731,"EPHEMERIS_TYPE":0,"CLASSIFICATION_TYPE":"U","NORAD_CAT_ID":51868,"ELEMENT_SET_NO":999,"REV_AT_EPOCH":20658,"BSTAR":-2.5545369e-5,"MEAN_MOTION_DOT":-6.95e-6,"MEAN_MOTION_DDOT":0},{"OBJECT_NAME":"STARLINK-3588","OBJECT_ID":"2022-022T","EPOCH":"2025-11-19T19:00:33.323904","MEAN_MOTION":15.08836044,"ECCENTRICITY":9.5e-5,"INCLINATION":53.2148,"RA_OF_ASC_NODE":142.469,"ARG_OF_PERICENTER":98.2365,"MEAN_ANOMALY":261.8734,"EPHEMERIS_TYPE":0,"CLASSIFICATION_TYPE":"U","NORAD_CAT_ID":51869,"ELEMENT_SET_NO":999,"REV_AT_EPOCH":20652,"BSTAR":-0.0002041079,"MEAN_MOTION_DOT":-3.534e-5,"MEAN_MOTION_DDOT":0},{"OBJECT_NAME":"STARLINK-3591","OBJECT_ID":"2022-022U","EPOCH":"2025-11-19T19:11:09.315168","MEAN_MOTION":15.08827058,"ECCENTRICITY":0.00014476,"INCLINATION":53.2154,"RA_OF_ASC_NODE":142.4361,"ARG_OF_PERICENTER":88.0414,"MEAN_ANOMALY":272.0744,"EPHEMERIS_TYPE":0,"CLASSIFICATION_TYPE":"U","NORAD_CAT_ID":51870,"ELEMENT_SET_NO":999,"REV_AT_EPOCH":20657,"BSTAR":2.346217e-6,"MEAN_MOTION_DOT":-2.51e-6,"MEAN_MOTION_DDOT":0}]
